[{"OBJECT_NAME":"OBJECT AS","OBJECT_ID":"2023-085AS","EPOCH":"2026-03-09T22:43:55.521696","MEAN_MOTION":15.33336233,"ECCENTRICITY":0.00083243,"INCLINATION":97.4812,"RA_OF_ASC_NODE":180.8852,"ARG_OF_PERICENTER":80.6036,"MEAN_ANOMALY":279.6147,"EPHEMERIS_TYPE":0,"CLASSIFICATION_TYPE":"U","NORAD_CAT_ID":57044,"ELEMENT_SET_NO":999,"REV_AT_EPOCH":15162,"BSTAR":0.00067677795,"MEAN_MOTION_DOT":0.00021782,"MEAN_MOTION_DDOT":0},{"OBJECT_NAME":"STARLINK-30936","OBJECT_ID":"2023-192D","EPOCH":"2026-03-09T22:25:52.639392","MEAN_MOTION":15.30185639,"ECCENTRICITY":0.00012615,"INCLINATION":53.1613,"RA_OF_ASC_NODE":51.6347,"ARG_OF_PERICENTER":89.1468,"MEAN_ANOMALY":270.9677,"EPHEMERIS_TYPE":0,"CLASSIFICATION_TYPE":"U","NORAD_CAT_ID":58534,"ELEMENT_SET_NO":999,"REV_AT_EPOCH":12616,"BSTAR":2.6179759e-5,"MEAN_MOTION_DOT":4.16e-6,"MEAN_MOTION_DDOT":0}]
